OBJECT_NAME,OBJECT_ID,EPOCH,MEAN_MOTION,ECCENTRICITY,INCLINATION,RA_OF_ASC_NODE,ARG_OF_PERICENTER,MEAN_ANOMALY,EPHEMERIS_TYPE,CLASSIFICATION_TYPE,NORAD_CAT_ID,ELEMENT_SET_NO,REV_AT_EPOCH,BSTAR,MEAN_MOTION_DOT,MEAN_MOTION_DDOT
GAOFEN-11 01,2018-063A,2026-07-22T06:59:51.000000,15.56221401,.00040899,97.1269,270.0907,173.5284,186.6025,0,U,43585,999,44580,.23388765E-3,.16315E-3,0
ICESAT-2,2018-070A,2026-07-22T06:03:11.005344,15.28261035,.00047334,92.0084,300.4554,42.6151,317.5464,0,U,43613,999,43781,.33138504E-3,.9124E-4,0
HYSIS,2018-096A,2026-07-22T07:58:35.333760,14.78617999,.00016526,97.9818,269.8016,74.6811,285.4582,0,U,43719,999,41261,.2846092E-4,.157E-5,0
KAZSTSAT,2018-099AB,2026-07-22T01:18:30.282624,14.99961126,.0007186,97.4304,233.4131,311.7800,48.2810,0,U,43783,999,41653,.29672604E-4,.313E-5,0
SAUDISAT 5A,2018-102A,2026-07-22T04:41:25.747296,15.28370007,.00097472,97.3046,264.1051,21.0280,339.1359,0,U,43831,999,42102,.21680325E-3,.5923E-4,0
SAUDISAT 5B,2018-102C,2026-07-22T06:34:38.676000,15.28611365,.00105376,97.3155,267.3154,21.9522,338.2167,0,U,43833,999,42115,.19645072E-3,.5401E-4,0
GAOFEN-10R,2019-066A,2026-07-22T07:20:01.502016,14.83068516,.0006472,98.0513,157.1438,33.6593,326.5030,0,U,44622,999,36758,.12547398E-3,.967E-5,0
CARTOSAT-3,2019-081A,2026-07-22T07:53:13.570656,15.19212660,.00123257,97.4281,264.6256,36.8024,323.4055,0,U,44804,999,36880,.83318469E-4,.1689E-4,0
GAOFEN-12 01,2019-082A,2026-07-22T07:01:28.989696,14.80483581,.00006639,97.8114,208.7476,71.9567,288.1718,0,U,44819,999,35928,.47673451E-4,.314E-5,0
CSG-1,2019-092A,2026-07-22T07:00:15.784704,14.82160934,.00014586,97.8900,26.3881,94.5857,265.5523,0,U,44873,999,35667,.49490224E-4,.342E-5,0
NEMO-HD,2020-061F,2026-07-22T05:38:35.124000,15.45246153,.00010645,97.1898,264.8457,117.6786,242.4572,0,U,46277,999,32739,.2663095E-3,.12579E-3,0
SENTINEL-6A,2020-086A,2026-07-21T23:39:00.682848,12.80930252,.00077798,66.0410,62.7765,269.6256,90.3868,0,U,46984,999,26478,-.25014761E-4,-.67E-6,0
CAS500-1,2021-022A,2026-07-22T06:42:09.596736,15.20125742,.00058368,97.3852,97.8139,146.4455,213.7151,0,U,47932,999,29609,.30064217E-3,.6435E-4,0
GAOFEN-12 02,2021-026A,2026-07-22T07:22:51.312576,14.80319949,.00061568,97.9940,201.3478,113.8647,246.3210,0,U,48079,999,28695,.4710308E-4,.306E-5,0
PLEIADES NEO 3,2021-034A,2026-07-22T07:15:37.874880,14.81665719,.00014068,97.8936,277.5640,100.6143,259.5228,0,U,48268,999,28285,.14220051E-3,.1067E-4,0
PLEIADES NEO 4,2021-073E,2026-07-22T06:26:57.617952,14.81671428,.00013821,97.8934,277.5267,97.2856,262.8514,0,U,49070,999,26656,.2449039E-4,.141E-5,0
LANDSAT 9,2021-088A,2026-07-22T03:35:20.684544,14.57099049,.00010642,98.2263,272.9007,94.1214,266.0106,0,U,49260,999,25609,.66241677E-4,.253E-5,0
CSG-2,2022-008A,2026-07-22T06:11:37.730112,14.82147726,.00015024,97.8904,26.3484,89.9989,270.1397,0,U,51444,999,24178,.3276291E-5,-.26E-6,0
GAOFEN-12 03,2022-069A,2026-07-22T06:37:09.460416,14.80082912,.00023477,97.8228,90.2539,64.5825,295.5630,0,U,52912,999,21980,.71303538E-4,.49E-5,0
SWOT,2022-173A,2026-07-22T06:52:44.688576,14.00172702,.00002144,77.6118,347.9248,70.8511,289.2664,0,U,54754,999,18406,.51849855E-4,.74E-6,0
GAOFEN-12 04,2023-123A,2026-07-22T07:07:34.474656,14.79784782,.00031094,97.9095,120.7878,35.0466,325.0949,0,U,57654,999,15782,.11082721E-3,.782E-5,0
PARS 1,2024-039Q,2026-07-22T06:20:33.479232,15.46398856,.00088359,97.4847,185.3115,2.2455,357.8832,0,U,59065,999,13406,.25132747E-3,.12356E-3,0
RESURS-P 4,2024-061A,2026-07-22T06:25:22.543392,15.32309583,.00032056,97.2758,150.5623,79.7797,280.3806,0,U,59371,999,12913,.99004376E-4,.3012E-4,0
LEGION 1,2024-081A,2026-07-22T06:10:59.282112,15.16875704,.0007915,97.5001,280.7430,240.1656,119.8790,0,U,59625,999,12285,.16869019E-3,.3256E-4,0
LEGION 2,2024-081B,2026-07-22T05:19:53.805792,15.16855843,.00107984,97.5002,280.8045,206.7667,153.3010,0,U,59626,999,12285,.19996445E-3,.3872E-4,0
ALOS-4 (DAICHI-4),2024-123A,2026-07-22T06:14:21.763968,14.79473430,.00015674,97.9221,299.9324,98.6516,261.4873,0,U,60182,999,11106,.16276082E-3,.1164E-4,0
LEGION 3,2024-146A,2026-07-22T06:10:04.453536,15.15682349,.00074463,45.0000,202.5354,13.1952,346.9120,0,U,60452,999,10734,.16170082E-3,.2868E-4,0
LEGION 4,2024-146B,2026-07-22T07:44:23.574912,15.15717364,.00094981,45.0021,294.0517,157.4471,202.6827,0,U,60453,999,10620,.19981999E-3,.3612E-4,0
SENTINEL-2C,2024-157A,2026-07-22T04:58:50.630880,14.30817152,.00010214,98.5679,277.4917,108.7672,251.3622,0,U,60989,999,9799,.41447217E-4,.65E-6,0
IONOSFERA-M 1,2024-199A,2026-07-22T06:52:20.948448,14.22760124,.00020491,98.7126,76.0804,62.9829,297.1558,0,U,61735,999,13269,.28547222E-4,.2E-6,0
