GAOFEN-11 01            
1 43585U 18063A   26203.29156250  .00016315  00000+0  23389-3 0  9999
2 43585  97.1269 270.0907 0004089 173.5284 186.6025 15.56221401445803
ICESAT-2                
1 43613U 18070A   26203.25221071  .00009124  00000+0  33139-3 0  9993
2 43613  92.0084 300.4554 0004733  42.6151 317.5464 15.28261035437815
HYSIS                   
1 43719U 18096A   26203.33235340  .00000157  00000+0  28461-4 0  9991
2 43719  97.9818 269.8016 0001652  74.6811 285.4582 14.78617999412610
KAZSTSAT                
1 43783U 18099AB  26203.05451716  .00000313  00000+0  29673-4 0  9991
2 43783  97.4304 233.4131 0007186 311.7800  48.2810 14.99961126416533
SAUDISAT 5A             
1 43831U 18102A   26203.19543689  .00005923  00000+0  21680-3 0  9997
2 43831  97.3046 264.1051 0009747  21.0280 339.1359 15.28370007421024
SAUDISAT 5B             
1 43833U 18102C   26203.27405875  .00005401  00000+0  19645-3 0  9991
2 43833  97.3155 267.3154 0010537  21.9522 338.2167 15.28611365421159
GAOFEN-10R              
1 44622U 19066A   26203.30557294  .00000967  00000+0  12547-3 0  9991
2 44622  98.0513 157.1438 0006472  33.6593 326.5030 14.83068516367583
CARTOSAT-3              
1 44804U 19081A   26203.32862929  .00001689  00000+0  83318-4 0  9993
2 44804  97.4281 264.6256 0012325  36.8024 323.4055 15.19212660368800
GAOFEN-12 01            
1 44819U 19082A   26203.29269664  .00000314  00000+0  47673-4 0  9991
2 44819  97.8114 208.7476 0000663  71.9567 288.1718 14.80483581359286
CSG-1                   
1 44873U 19092A   26203.29184936  .00000342  00000+0  49490-4 0  9990
2 44873  97.8900  26.3881 0001458  94.5857 265.5523 14.82160934356678
NEMO-HD                 
1 46277U 20061F   26203.23512875  .00012579  00000+0  26631-3 0  9995
2 46277  97.1898 264.8457 0001064 117.6786 242.4572 15.45246153327399
SENTINEL-6A             
1 46984U 20086A   26202.98542457 -.00000067  00000+0 -25015-4 0  9994
2 46984  66.0410  62.7765 0007779 269.6256  90.3868 12.80930252264782
CAS500-1                
1 47932U 21022A   26203.27927774  .00006435  00000+0  30064-3 0  9993
2 47932  97.3852  97.8139 0005836 146.4455 213.7151 15.20125742296094
GAOFEN-12 02            
1 48079U 21026A   26203.30753834  .00000306  00000+0  47103-4 0  9992
2 48079  97.9940 201.3478 0006156 113.8647 246.3210 14.80319949286957
PLEIADES NEO 3          
1 48268U 21034A   26203.30252170  .00001067  00000+0  14220-3 0  9996
2 48268  97.8936 277.5640 0001406 100.6143 259.5228 14.81665719282855
PLEIADES NEO 4          
1 49070U 21073E   26203.26872243  .00000141  00000+0  24490-4 0  9998
2 49070  97.8934 277.5267 0001382  97.2856 262.8514 14.81671428266564
LANDSAT 9               
1 49260U 21088A   26203.14954496  .00000253  00000+0  66242-4 0  9998
2 49260  98.2263 272.9007 0001064  94.1214 266.0106 14.57099049256093
CSG-2                   
1 51444U 22008A   26203.25807558 -.00000026  00000+0  32763-5 0  9997
2 51444  97.8904  26.3484 0001502  89.9989 270.1397 14.82147726241787
GAOFEN-12 03            
1 52912U 22069A   26203.27580394  .00000490  00000+0  71304-4 0  9990
2 52912  97.8228  90.2539 0002347  64.5825 295.5630 14.80082912219806
SWOT                    
1 54754U 22173A   26203.28662834  .00000074  00000+0  51850-4 0  9995
2 54754  77.6118 347.9248 0000214  70.8511 289.2664 14.00172702184063
GAOFEN-12 04            
1 57654U 23123A   26203.29692679  .00000782  00000+0  11083-3 0  9993
2 57654  97.9095 120.7878 0003109  35.0466 325.0949 14.79784782157820
PARS 1                  
1 59065U 24039Q   26203.26427638  .00012356  00000+0  25133-3 0  9997
2 59065  97.4847 185.3115 0008835   2.2455 357.8832 15.46398856134067
RESURS-P 4              
1 59371U 24061A   26203.26762203  .00003012  00000+0  99004-4 0  9990
2 59371  97.2758 150.5623 0003205  79.7797 280.3806 15.32309583129135
LEGION 1                
1 59625U 24081A   26203.25763058  .00003256  00000+0  16869-3 0  9999
2 59625  97.5001 280.7430 0007915 240.1656 119.8790 15.16875704122858
LEGION 2                
1 59626U 24081B   26203.22215053  .00003872  00000+0  19996-3 0  9992
2 59626  97.5002 280.8045 0010798 206.7667 153.3010 15.16855843122856
ALOS-4 (DAICHI-4)       
1 60182U 24123A   26203.25997412  .00001164  00000+0  16276-3 0  9997
2 60182  97.9221 299.9324 0001567  98.6516 261.4873 14.79473430111063
LEGION 3                
1 60452U 24146A   26203.25699599  .00002868  00000+0  16170-3 0  9992
2 60452  45.0000 202.5354 0007446  13.1952 346.9120 15.15682349107345
LEGION 4                
1 60453U 24146B   26203.32249508  .00003612  00000+0  19982-3 0  9994
2 60453  45.0021 294.0517 0009498 157.4471 202.6827 15.15717364106205
SENTINEL-2C             
1 60989U 24157A   26203.20753045  .00000065  00000+0  41447-4 0  9994
2 60989  98.5679 277.4917 0001021 108.7672 251.3622 14.30817152 97997
IONOSFERA-M 1           
1 61735U 24199A   26203.28635357  .00000020  00000+0  28547-4 0  9990
2 61735  98.7126  76.0804 0002049  62.9829 297.1558 14.22760124132690
